0 CZ-4C R/B
1 37215U 10059B   13283.09607848  .00000071  00000-0  33036-4 0  8639
2 37215 098.8853 281.8447 0090397 083.6964 277.4513 14.45634297154609
0 CZ-4C R/B
1 37215U 10059B   13286.07225283  .00000127  00000-0  47921-4 0  8651
2 37215 098.8849 284.9603 0090326 074.9093 286.2069 14.45635724155038
0 CZ-4C R/B
1 37215U 10059B   13287.11045152  .00000155  00000-0  55602-4 0  8669
2 37215 098.8848 286.0471 0090289 071.8311 289.2684 14.45636087155185
0 CZ-4C R/B
1 37215U 10059B   13289.60212470  .00000187  00000-0  64294-4 0  8688
2 37215 098.8850 288.6552 0090203 064.4529 296.5953 14.45638028155548
0 CZ-4C R/B
1 37215U 10059B   13290.64031996  .00000196  00000-0  66574-4 0  8690
2 37215 098.8852 289.7418 0090162 061.3773 299.6449 14.45638478155693
0 CZ-4C R/B
1 37215U 10059B   13292.09379200  .00000195  00000-0  66239-4 0  8703
2 37215 098.8854 291.2632 0090093 057.0697 303.9118 14.45638954155906
0 CZ-4C R/B
1 37215U 10059B   13293.47804984  .00000199  00000-0  67470-4 0  8711
2 37215 098.8856 292.7122 0090051 052.9716 307.9670 14.45639591156106
0 CZ-4C R/B
1 37215U 10059B   13294.65466758  .00000227  00000-0  74899-4 0  8721
2 37215 098.8856 293.9440 0089987 049.4837 311.4148 14.45640146156279
0 CZ-4C R/B
1 37215U 10059B   13296.10813542  .00000230  00000-0  75908-4 0  8737
2 37215 098.8856 295.4655 0089904 045.1650 315.6800 14.45641075156485
